<?xml version='1.0' encoding='utf-8'?>
<kml xmlns="http://www.opengis.net/kml/2.2">
  <Document>
    <Placemark>
      <name>Origen</name>
      <description>Punto de inicio</description>
      <Point>
        <coordinates>101.7383737552756,2.760760849681371,0</coordinates>
        <altitudeMode>relativeToGround</altitudeMode>
      </Point>
    </Placemark>
    <Placemark>
      <name>Ruta del circuito</name>
      <LineString>
        <extrude>1</extrude>
        <tessellation>1</tessellation>
        <coordinates>101.7383737552756,2.760760849681371,0
101.7328846591437,2.760327249108586,0
101.732617736169,2.760535752910788,0
101.732631617198,2.760793310413433,0
101.7328791444944,2.760961363069935,0
101.7334031108695,2.760835250557493,0
101.7335812832481,2.761130977132376,0
101.7331552473598,2.761790279929366,0
101.7330773028571,2.762184974028178,0
101.7331640791099,2.762935392202387,0
101.7334418912973,2.763466501175912,0
101.7337006452344,2.763700662517614,0
101.7373839144215,2.765161849744155,0
101.7375549087707,2.765153109813896,0
101.7376456518539,2.765011512631983,0
101.738071497666,2.762898012072111,0
101.7384280484597,2.762422110141107,0
101.7390536920254,2.762211297311142,0
101.739449045915,2.762290547880553,0
101.7398158590765,2.762515203052457,0
101.7403059026754,2.762960468950953,0
101.7408265128683,2.76299345212056,0
101.7412948466491,2.762721854460065,0
101.7430336839804,2.760711390489848,0
101.7430353365626,2.76055247463031,0
101.7426294181043,2.759727583625309,0
101.7383938928991,2.759288687636142,0
101.7383167311723,2.759149093962015,0
101.7391818354838,2.758467314783553,0
101.7392901081179,2.757990191575427,0
101.7391772432363,2.757256159495505,0
101.7387774472675,2.756668031168319,0
101.7384540857916,2.7566580485138,0
101.7364228034539,2.758297223689573,0
101.7360140786274,2.758299137621751,0
101.7349445418392,2.757848041520693,0
101.7342838051323,2.757906463948338,0
101.7337410791875,2.758323093816584,0
101.7336104368038,2.758747427461277,0
101.7338041407177,2.758967523217608,0
101.7414092259048,2.760362504182803,0
101.7415938817099,2.760711410408941,0
101.7413460510954,2.760981241389389,0
101.7383737552756,2.760760849681371,0</coordinates>
        <altitudeMode>relativeToGround</altitudeMode>
      </LineString>
      <Style>
        <LineStyle>
          <color>#ff0000ff</color>
          <width>3</width>
        </LineStyle>
      </Style>
    </Placemark>
  </Document>
</kml>